[{"OBJECT_NAME":"STARLINK-32293","OBJECT_ID":"2024-183T","EPOCH":"2026-03-09T11:13:29.421696","MEAN_MOTION":15.30172137,"ECCENTRICITY":0.00015652,"INCLINATION":53.1615,"RA_OF_ASC_NODE":143.8124,"ARG_OF_PERICENTER":89.05,"MEAN_ANOMALY":271.068,"EPHEMERIS_TYPE":0,"CLASSIFICATION_TYPE":"U","NORAD_CAT_ID":61526,"ELEMENT_SET_NO":999,"REV_AT_EPOCH":7961,"BSTAR":-7.6267638e-5,"MEAN_MOTION_DOT":-2.615e-5,"MEAN_MOTION_DDOT":0},{"OBJECT_NAME":"GEOSCAN 5 (RS92S5)","OBJECT_ID":"2025-155R","EPOCH":"2026-03-09T22:01:07.273920","MEAN_MOTION":15.30265233,"ECCENTRICITY":0.00070849,"INCLINATION":97.4462,"RA_OF_ASC_NODE":37.7456,"ARG_OF_PERICENTER":154.5846,"MEAN_ANOMALY":205.5745,"EPHEMERIS_TYPE":0,"CLASSIFICATION_TYPE":"U","NORAD_CAT_ID":64891,"ELEMENT_SET_NO":999,"REV_AT_EPOCH":6562,"BSTAR":0.00068639307,"MEAN_MOTION_DOT":0.00020065,"MEAN_MOTION_DDOT":0}]
